UNKNOWN                 
1 82739U          25342.71004326  .00003252  00000+0  27021-2 0  9993
2 82739  99.0864 139.1885 0173429 303.9705  69.1108 13.82682741605553
UNKNOWN                 
1 82741U          25343.55482966  .00003816  00000+0  41002-2 0  9990
2 82741 102.8452  17.9724 0203095 272.6210  85.1688 13.66000325596647
UNKNOWN                 
1 82783U          25343.11942608  .00000463  00000+0  13293-2 0  9998
2 82783  90.3414  38.0614 0025705 126.7488 233.6004 13.09017577503880
UNKNOWN                 
1 82798U          25338.38244633  .00004376  00000+0  19339-2 0  9994
2 82798  82.9514 198.4863 0028608 197.0141 339.5953 14.22853628311183
UNKNOWN                 
1 82820U          25341.72778917  .00006142  00000+0  21502-2 0  9997
2 82820  99.7876 141.8133 0048613  29.4215 330.9687 14.34880956624910
UNKNOWN                 
1 82854U          25336.01027073  .00002552  00000+0  20117-2 0  9992
2 82854  82.6891  73.0180 0126258 310.3434  48.6754 13.87721114606319
UNKNOWN                 
1 82873U          25343.45005194  .00006139  00000+0  26535-2 0  9994
2 82873  99.9955 237.1710 0040228 295.6729  64.0293 14.24380400620764
UNKNOWN                 
1 82875U          25341.66719099  .00001880  00000+0  49942-3 0  9999
2 82875  98.6751 325.1390 0377216 297.7082  58.6300 14.15137371543751
UNKNOWN                 
1 82893U          25343.60045251  .00011874  00000+0  44652-2 0  9993
2 82893  98.9619  98.5898 0022487  55.7170 304.6137 14.31519322423520
UNKNOWN                 
1 82912U          25342.81378551  .00005622  00000+0  23026-2 0  9995
2 82912  65.8347 183.3295 0776358 270.6325  80.5903 13.27650047578807
UNKNOWN                 
1 82961U          25332.39346177  .00010294  00000+0  16926-1 0  9991
2 82961  99.9125 127.6218 0375100  38.7846 323.9572 13.22925587553819
UNKNOWN                 
1 82965U          25341.16703301  .00001630  00000+0  22495-2 0  9999
2 82965 100.1169  60.5165 0002674 181.9708 178.1421 13.59984266523698
