CCSDS_OMM_VERS = 2.0
CREATION_DATE  = 
ORIGINATOR     = 

OBJECT_NAME    = UNKNOWN
OBJECT_ID      = 
CENTER_NAME    = EARTH
REF_FRAME      = TEME
TIME_SYSTEM    = UTC
MEAN_ELEMENT_THEORY = SGP/SGP4

EPOCH          = 2025-12-08T17:02:27.737664
MEAN_MOTION    = 13.82682741
ECCENTRICITY   = .0173429
INCLINATION    = 99.0864
RA_OF_ASC_NODE = 139.1885
ARG_OF_PERICENTER = 303.9705
MEAN_ANOMALY   = 69.1108

EPHEMERIS_TYPE = 0
CLASSIFICATION_TYPE = U
NORAD_CAT_ID   = 82739
ELEMENT_SET_NO = 999
REV_AT_EPOCH   = 60555
BSTAR          = .27021E-2
MEAN_MOTION_DOT = .3252E-4
MEAN_MOTION_DDOT = 0

CCSDS_OMM_VERS = 2.0
CREATION_DATE  = 
ORIGINATOR     = 

OBJECT_NAME    = UNKNOWN
OBJECT_ID      = 
CENTER_NAME    = EARTH
REF_FRAME      = TEME
TIME_SYSTEM    = UTC
MEAN_ELEMENT_THEORY = SGP/SGP4

EPOCH          = 2025-12-09T13:18:57.282624
MEAN_MOTION    = 13.66000325
ECCENTRICITY   = .0203095
INCLINATION    = 102.8452
RA_OF_ASC_NODE = 17.9724
ARG_OF_PERICENTER = 272.6210
MEAN_ANOMALY   = 85.1688

EPHEMERIS_TYPE = 0
CLASSIFICATION_TYPE = U
NORAD_CAT_ID   = 82741
ELEMENT_SET_NO = 999
REV_AT_EPOCH   = 59664
BSTAR          = .41002E-2
MEAN_MOTION_DOT = .3816E-4
MEAN_MOTION_DDOT = 0

CCSDS_OMM_VERS = 2.0
CREATION_DATE  = 
ORIGINATOR     = 

OBJECT_NAME    = UNKNOWN
OBJECT_ID      = 
CENTER_NAME    = EARTH
REF_FRAME      = TEME
TIME_SYSTEM    = UTC
MEAN_ELEMENT_THEORY = SGP/SGP4

EPOCH          = 2025-12-09T02:51:58.413312
MEAN_MOTION    = 13.09017577
ECCENTRICITY   = .0025705
INCLINATION    = 90.3414
RA_OF_ASC_NODE = 38.0614
ARG_OF_PERICENTER = 126.7488
MEAN_ANOMALY   = 233.6004

EPHEMERIS_TYPE = 0
CLASSIFICATION_TYPE = U
NORAD_CAT_ID   = 82783
ELEMENT_SET_NO = 999
REV_AT_EPOCH   = 50388
BSTAR          = .13293E-2
MEAN_MOTION_DOT = .463E-5
MEAN_MOTION_DDOT = 0

CCSDS_OMM_VERS = 2.0
CREATION_DATE  = 
ORIGINATOR     = 

OBJECT_NAME    = UNKNOWN
OBJECT_ID      = 
CENTER_NAME    = EARTH
REF_FRAME      = TEME
TIME_SYSTEM    = UTC
MEAN_ELEMENT_THEORY = SGP/SGP4

EPOCH          = 2025-12-04T09:10:43.362912
MEAN_MOTION    = 14.22853628
ECCENTRICITY   = .0028608
INCLINATION    = 82.9514
RA_OF_ASC_NODE = 198.4863
ARG_OF_PERICENTER = 197.0141
MEAN_ANOMALY   = 339.5953

EPHEMERIS_TYPE = 0
CLASSIFICATION_TYPE = U
NORAD_CAT_ID   = 82798
ELEMENT_SET_NO = 999
REV_AT_EPOCH   = 31118
BSTAR          = .19339E-2
MEAN_MOTION_DOT = .4376E-4
MEAN_MOTION_DDOT = 0

CCSDS_OMM_VERS = 2.0
CREATION_DATE  = 
ORIGINATOR     = 

OBJECT_NAME    = UNKNOWN
OBJECT_ID      = 
CENTER_NAME    = EARTH
REF_FRAME      = TEME
TIME_SYSTEM    = UTC
MEAN_ELEMENT_THEORY = SGP/SGP4

EPOCH          = 2025-12-07T17:28:00.984288
MEAN_MOTION    = 14.34880956
ECCENTRICITY   = .0048613
INCLINATION    = 99.7876
RA_OF_ASC_NODE = 141.8133
ARG_OF_PERICENTER = 29.4215
MEAN_ANOMALY   = 330.9687

EPHEMERIS_TYPE = 0
CLASSIFICATION_TYPE = U
NORAD_CAT_ID   = 82820
ELEMENT_SET_NO = 999
REV_AT_EPOCH   = 62491
BSTAR          = .21502E-2
MEAN_MOTION_DOT = .6142E-4
MEAN_MOTION_DDOT = 0

CCSDS_OMM_VERS = 2.0
CREATION_DATE  = 
ORIGINATOR     = 

OBJECT_NAME    = UNKNOWN
OBJECT_ID      = 
CENTER_NAME    = EARTH
REF_FRAME      = TEME
TIME_SYSTEM    = UTC
MEAN_ELEMENT_THEORY = SGP/SGP4

EPOCH          = 2025-12-02T00:14:47.391072
MEAN_MOTION    = 13.87721114
ECCENTRICITY   = .0126258
INCLINATION    = 82.6891
RA_OF_ASC_NODE = 73.0180
ARG_OF_PERICENTER = 310.3434
MEAN_ANOMALY   = 48.6754

EPHEMERIS_TYPE = 0
CLASSIFICATION_TYPE = U
NORAD_CAT_ID   = 82854
ELEMENT_SET_NO = 999
REV_AT_EPOCH   = 60631
BSTAR          = .20117E-2
MEAN_MOTION_DOT = .2552E-4
MEAN_MOTION_DDOT = 0

CCSDS_OMM_VERS = 2.0
CREATION_DATE  = 
ORIGINATOR     = 

OBJECT_NAME    = UNKNOWN
OBJECT_ID      = 
CENTER_NAME    = EARTH
REF_FRAME      = TEME
TIME_SYSTEM    = UTC
MEAN_ELEMENT_THEORY = SGP/SGP4

EPOCH          = 2025-12-09T10:48:04.487616
MEAN_MOTION    = 14.24380400
ECCENTRICITY   = .0040228
INCLINATION    = 99.9955
RA_OF_ASC_NODE = 237.1710
ARG_OF_PERICENTER = 295.6729
MEAN_ANOMALY   = 64.0293

EPHEMERIS_TYPE = 0
CLASSIFICATION_TYPE = U
NORAD_CAT_ID   = 82873
ELEMENT_SET_NO = 999
REV_AT_EPOCH   = 62076
BSTAR          = .26535E-2
MEAN_MOTION_DOT = .6139E-4
MEAN_MOTION_DDOT = 0

CCSDS_OMM_VERS = 2.0
CREATION_DATE  = 
ORIGINATOR     = 

OBJECT_NAME    = UNKNOWN
OBJECT_ID      = 
CENTER_NAME    = EARTH
REF_FRAME      = TEME
TIME_SYSTEM    = UTC
MEAN_ELEMENT_THEORY = SGP/SGP4

EPOCH          = 2025-12-07T16:00:45.301536
MEAN_MOTION    = 14.15137371
ECCENTRICITY   = .0377216
INCLINATION    = 98.6751
RA_OF_ASC_NODE = 325.1390
ARG_OF_PERICENTER = 297.7082
MEAN_ANOMALY   = 58.6300

EPHEMERIS_TYPE = 0
CLASSIFICATION_TYPE = U
NORAD_CAT_ID   = 82875
ELEMENT_SET_NO = 999
REV_AT_EPOCH   = 54375
BSTAR          = .49942E-3
MEAN_MOTION_DOT = .188E-4
MEAN_MOTION_DDOT = 0

CCSDS_OMM_VERS = 2.0
CREATION_DATE  = 
ORIGINATOR     = 

OBJECT_NAME    = UNKNOWN
OBJECT_ID      = 
CENTER_NAME    = EARTH
REF_FRAME      = TEME
TIME_SYSTEM    = UTC
MEAN_ELEMENT_THEORY = SGP/SGP4

EPOCH          = 2025-12-09T14:24:39.096864
MEAN_MOTION    = 14.31519322
ECCENTRICITY   = .0022487
INCLINATION    = 98.9619
RA_OF_ASC_NODE = 98.5898
ARG_OF_PERICENTER = 55.7170
MEAN_ANOMALY   = 304.6137

EPHEMERIS_TYPE = 0
CLASSIFICATION_TYPE = U
NORAD_CAT_ID   = 82893
ELEMENT_SET_NO = 999
REV_AT_EPOCH   = 42352
BSTAR          = .44652E-2
MEAN_MOTION_DOT = .11874E-3
MEAN_MOTION_DDOT = 0

CCSDS_OMM_VERS = 2.0
CREATION_DATE  = 
ORIGINATOR     = 

OBJECT_NAME    = UNKNOWN
OBJECT_ID      = 
CENTER_NAME    = EARTH
REF_FRAME      = TEME
TIME_SYSTEM    = UTC
MEAN_ELEMENT_THEORY = SGP/SGP4

EPOCH          = 2025-12-08T19:31:51.068064
MEAN_MOTION    = 13.27650047
ECCENTRICITY   = .0776358
INCLINATION    = 65.8347
RA_OF_ASC_NODE = 183.3295
ARG_OF_PERICENTER = 270.6325
MEAN_ANOMALY   = 80.5903

EPHEMERIS_TYPE = 0
CLASSIFICATION_TYPE = U
NORAD_CAT_ID   = 82912
ELEMENT_SET_NO = 999
REV_AT_EPOCH   = 57880
BSTAR          = .23026E-2
MEAN_MOTION_DOT = .5622E-4
MEAN_MOTION_DDOT = 0

CCSDS_OMM_VERS = 2.0
CREATION_DATE  = 
ORIGINATOR     = 

OBJECT_NAME    = UNKNOWN
OBJECT_ID      = 
CENTER_NAME    = EARTH
REF_FRAME      = TEME
TIME_SYSTEM    = UTC
MEAN_ELEMENT_THEORY = SGP/SGP4

EPOCH          = 2025-11-28T09:26:35.096928
MEAN_MOTION    = 13.22925587
ECCENTRICITY   = .03751
INCLINATION    = 99.9125
RA_OF_ASC_NODE = 127.6218
ARG_OF_PERICENTER = 38.7846
MEAN_ANOMALY   = 323.9572

EPHEMERIS_TYPE = 0
CLASSIFICATION_TYPE = U
NORAD_CAT_ID   = 82961
ELEMENT_SET_NO = 999
REV_AT_EPOCH   = 55381
BSTAR          = .16926E-1
MEAN_MOTION_DOT = .10294E-3
MEAN_MOTION_DDOT = 0

CCSDS_OMM_VERS = 2.0
CREATION_DATE  = 
ORIGINATOR     = 

OBJECT_NAME    = UNKNOWN
OBJECT_ID      = 
CENTER_NAME    = EARTH
REF_FRAME      = TEME
TIME_SYSTEM    = UTC
MEAN_ELEMENT_THEORY = SGP/SGP4

EPOCH          = 2025-12-07T04:00:31.652064
MEAN_MOTION    = 13.59984266
ECCENTRICITY   = .0002674
INCLINATION    = 100.1169
RA_OF_ASC_NODE = 60.5165
ARG_OF_PERICENTER = 181.9708
MEAN_ANOMALY   = 178.1421

EPHEMERIS_TYPE = 0
CLASSIFICATION_TYPE = U
NORAD_CAT_ID   = 82965
ELEMENT_SET_NO = 999
REV_AT_EPOCH   = 52369
BSTAR          = .22495E-2
MEAN_MOTION_DOT = .163E-4
MEAN_MOTION_DDOT = 0

